{
    "links": {
        "self": "http://www.neowsapp.com/rest/v1/neo/3827425?api_key=iIulBulltgU6a56xZRHN4H3l9WmuAYTsLGpBGhQ2"
    },
    "id": "3827425",
    "neo_reference_id": "3827425",
    "name": "(2018 RS3)",
    "designation": "2018 RS3",
    "nasa_jpl_url": "http://ssd.jpl.nasa.gov/sbdb.cgi?sstr=3827425",
    "absolute_magnitude_h": 23.5,
    "estimated_diameter": {
        "kilometers": {
            "estimated_diameter_min": 0.0530340723,
            "estimated_diameter_max": 0.1185877909
        },
        "meters": {
            "estimated_diameter_min": 53.0340723319,
            "estimated_diameter_max": 118.5877908577
        },
        "miles": {
            "estimated_diameter_min": 0.0329538346,
            "estimated_diameter_max": 0.0736870142
        },
        "feet": {
            "estimated_diameter_min": 173.9963058693,
            "estimated_diameter_max": 389.0675677576
        }
    },
    "is_potentially_hazardous_asteroid": false,
    "close_approach_data": [
        {
            "close_approach_date": "2018-09-16",
            "close_approach_date_full": "2018-Sep-16 04:34",
            "epoch_date_close_approach": 1537072440000,
            "relative_velocity": {
                "kilometers_per_second": "20.8103322144",
                "kilometers_per_hour": "74917.1959717176",
                "miles_per_hour": "46550.6321303153"
            },
            "miss_distance": {
                "astronomical": "0.0987254029",
                "lunar": "38.4041817281",
                "kilometers": "14769109.988731823",
                "miles": "9177099.3992442374"
            },
            "orbiting_body": "Earth"
        }
    ],
    "orbital_data": {
        "orbit_id": "2",
        "orbit_determination_date": "2018-09-15 07:29:05",
        "first_observation_date": "2018-09-09",
        "last_observation_date": "2018-09-15",
        "data_arc_in_days": 6,
        "observations_used": 34,
        "orbit_uncertainty": "9",
        "minimum_orbit_intersection": ".08893",
        "jupiter_tisserand_invariant": "4.280",
        "epoch_osculation": "2458371.5",
        "eccentricity": ".3276044898375851",
        "semi_major_axis": "1.498256304049173",
        "inclination": "37.29219161377871",
        "ascending_node_longitude": "172.4990807318019",
        "orbital_period": "669.850055095887",
        "perihelion_distance": "1.007420811915198",
        "perihelion_argument": "228.5310609795465",
        "aphelion_distance": "1.989091796183148",
        "perihelion_time": "2458419.858056321952",
        "mean_anomaly": "334.0107504008331",
        "mean_motion": ".5374337096209794",
        "equinox": "J2000",
        "orbit_class": {
            "orbit_class_type": "APO",
            "orbit_class_description": "Near-Earth asteroid orbits which cross the Earth’s orbit similar to that of 1862 Apollo",
            "orbit_class_range": "a (semi-major axis) > 1.0 AU; q (perihelion) < 1.017 AU"
        }
    },
    "is_sentry_object": false
}